start=new Date('2021-09-05T00:00:00.000Z').valueOf();
sats=[{"FILE":"3108751","EPOCH":"2021-09-05T00:00:04.000320","MEAN_MOTION":"15.06380119","OBJECT_ID":"2021-012Y","TLE_LINE1":"1 47642U 21012Y   21248.00004630  .00029363  00000-0  19830-2 0  9995","GP_ID":"184105693","MEAN_MOTION_DDOT":"0.0000000000000","ELEMENT_SET_NO":"999","TIME_SYSTEM":"UTC","ARG_OF_PERICENTER":"76.0488","CENTER_NAME":"EARTH","REF_FRAME":"TEME","LAUNCH_DATE":"2021-02-16","PERIAPSIS":"546.698","ECCENTRICITY":"0.00008330","MEAN_MOTION_DOT":"0.00029363","BSTAR":"0.00198300000000","MEAN_ELEMENT_THEORY":"SGP4","REV_AT_EPOCH":"357","RA_OF_ASC_NODE":"258.8831","TLE_LINE2":"2 47642  53.0526 258.8831 0000833  76.0488 266.6204 15.06380119  3573","APOAPSIS":"547.851","PERIOD":"95.593","CLASSIFICATION_TYPE":"U","RCS_SIZE":"LARGE","DECAY_DATE":null,"OBJECT_TYPE":"PAYLOAD","INCLINATION":"53.0526","SITE":"AFETR","NORAD_CAT_ID":"47642","MEAN_ANOMALY":"266.6204","COUNTRY_CODE":"US","EPHEMERIS_TYPE":"0","OBJECT_NAME":"STARLINK-2020","SEMIMAJOR_AXIS":"6925.409"},{"MEAN_ANOMALY":"191.3185","EPHEMERIS_TYPE":"0","COUNTRY_CODE":"US","OBJECT_NAME":"STARLINK-2022","SEMIMAJOR_AXIS":"6925.338","NORAD_CAT_ID":"47643","OBJECT_TYPE":"PAYLOAD","INCLINATION":"53.0512","SITE":"AFETR","APOAPSIS":"547.815","PERIOD":"95.592","CLASSIFICATION_TYPE":"U","RCS_SIZE":"LARGE","DECAY_DATE":null,"PERIAPSIS":"546.592","LAUNCH_DATE":"2021-02-16","ECCENTRICITY":"0.00008830","MEAN_MOTION_DOT":"0.00010057","BSTAR":"0.00069302000000","MEAN_ELEMENT_THEORY":"SGP4","REV_AT_EPOCH":"357","RA_OF_ASC_NODE":"243.8898","TLE_LINE2":"2 47643  53.0512 243.8898 0000883  48.6434 191.3185 15.06403397  3573","TIME_SYSTEM":"UTC","ARG_OF_PERICENTER":"48.6434","CENTER_NAME":"EARTH","REF_FRAME":"TEME","TLE_LINE1":"1 47643U 21012Z   21248.00004630  .00010057  00000-0  69302-3 0  9996","GP_ID":"184104941","MEAN_MOTION_DDOT":"0.0000000000000","ELEMENT_SET_NO":"999","FILE":"3108751","EPOCH":"2021-09-05T00:00:04.000320","MEAN_MOTION":"15.06403397","OBJECT_ID":"2021-012Z"},{"OBJECT_TYPE":"PAYLOAD","SITE":"AFETR","INCLINATION":"53.0515","PERIOD":"95.593","APOAPSIS":"547.985","RCS_SIZE":"LARGE","DECAY_DATE":null,"CLASSIFICATION_TYPE":"U","MEAN_ANOMALY":"95.5416","COUNTRY_CODE":"US","EPHEMERIS_TYPE":"0","SEMIMAJOR_AXIS":"6925.395","OBJECT_NAME":"STARLINK-2026","NORAD_CAT_ID":"47644","TLE_LINE1":"1 47644U 21012AA  21248.00004630  .00026577  00000-0  17971-2 0  9995","GP_ID":"184105191","MEAN_MOTION_DDOT":"0.0000000000000","ELEMENT_SET_NO":"999","FILE":"3108751","OBJECT_ID":"2021-012AA","EPOCH":"2021-09-05T00:00:04.000320","MEAN_MOTION":"15.06384920","LAUNCH_DATE":"2021-02-16","PERIAPSIS":"546.535","MEAN_MOTION_DOT":"0.00026577","ECCENTRICITY":"0.00010470","BSTAR":"0.00179710000000","TLE_LINE2":"2 47644  53.0515 263.9039 0001047  74.3526  95.5416 15.06384920  3581","RA_OF_ASC_NODE":"263.9039","MEAN_ELEMENT_THEORY":"SGP4","REV_AT_EPOCH":"358","TIME_SYSTEM":"UTC","CENTER_NAME":"EARTH","ARG_OF_PERICENTER":"74.3526","REF_FRAME":"TEME"},{"TIME_SYSTEM":"UTC","REF_FRAME":"TEME","CENTER_NAME":"EARTH","ARG_OF_PERICENTER":"186.0990","MEAN_MOTION_DOT":"0.00000191","ECCENTRICITY":"0.00065810","LAUNCH_DATE":"2021-02-16","PERIAPSIS":"542.680","RA_OF_ASC_NODE":"233.9288","TLE_LINE2":"2 47645  53.0454 233.9288 0006581 186.0990 353.9970 15.06392234  3584","MEAN_ELEMENT_THEORY":"SGP4","REV_AT_EPOCH":"358","BSTAR":"0.00003182900000","OBJECT_ID":"2021-012AB","EPOCH":"2021-09-05T00:00:04.000320","MEAN_MOTION":"15.06392234","FILE":"3108751","GP_ID":"184105443","MEAN_MOTION_DDOT":"0.0000000000000","TLE_LINE1":"1 47645U 21012AB  21248.00004630  .00000191  00000-0  31829-4 0  9990","ELEMENT_SET_NO":"999","NORAD_CAT_ID":"47645","MEAN_ANOMALY":"353.9970","SEMIMAJOR_AXIS":"6925.372","OBJECT_NAME":"STARLINK-2027","COUNTRY_CODE":"US","EPHEMERIS_TYPE":"0","DECAY_DATE":null,"RCS_SIZE":"LARGE","CLASSIFICATION_TYPE":"U","PERIOD":"95.593","APOAPSIS":"551.795","OBJECT_TYPE":"PAYLOAD","SITE":"AFETR","INCLINATION":"53.0454"},{"APOAPSIS":"548.515","PERIOD":"95.591","CLASSIFICATION_TYPE":"U","RCS_SIZE":"LARGE","DECAY_DATE":null,"OBJECT_TYPE":"PAYLOAD","INCLINATION":"53.0543","SITE":"AFETR","NORAD_CAT_ID":"47646","MEAN_ANOMALY":"182.4491","EPHEMERIS_TYPE":"0","COUNTRY_CODE":"US","OBJECT_NAME":"STARLINK-2028","SEMIMAJOR_AXIS":"6925.303","FILE":"3108751","EPOCH":"2021-09-05T00:00:04.000320","MEAN_MOTION":"15.06415015","OBJECT_ID":"2021-012AC","TLE_LINE1":"1 47646U 21012AC  21248.00004630 -.00025052  00000-0 -16681-2 0  9993","GP_ID":"184106193","MEAN_MOTION_DDOT":"0.0000000000000","ELEMENT_SET_NO":"999","TIME_SYSTEM":"UTC","ARG_OF_PERICENTER":"70.2215","CENTER_NAME":"EARTH","REF_FRAME":"TEME","LAUNCH_DATE":"2021-02-16","PERIAPSIS":"545.821","ECCENTRICITY":"0.00019450","MEAN_MOTION_DOT":"-0.00025052","BSTAR":"-0.00166810000000","REV_AT_EPOCH":"360","MEAN_ELEMENT_THEORY":"SGP4","RA_OF_ASC_NODE":"198.8833","TLE_LINE2":"2 47646  53.0543 198.8833 0001945  70.2215 182.4491 15.06415015  3601"},{"FILE":"3108751","EPOCH":"2021-09-05T00:00:04.000320","MEAN_MOTION":"15.06391339","OBJECT_ID":"2021-012AD","TLE_LINE1":"1 47647U 21012AD  21248.00004630  .00030458  00000-0  20553-2 0  9991","GP_ID":"184104442","MEAN_MOTION_DDOT":"0.0000000000000","ELEMENT_SET_NO":"999","TIME_SYSTEM":"UTC","ARG_OF_PERICENTER":"63.0066","CENTER_NAME":"EARTH","REF_FRAME":"TEME","PERIAPSIS":"546.390","LAUNCH_DATE":"2021-02-16","MEAN_MOTION_DOT":"0.00030458","ECCENTRICITY":"0.00012270","BSTAR":"0.00205530000000","MEAN_ELEMENT_THEORY":"SGP4","REV_AT_EPOCH":"361","RA_OF_ASC_NODE":"263.8912","TLE_LINE2":"2 47647  53.0529 263.8912 0001227  63.0066  47.0189 15.06391339  3617","APOAPSIS":"548.090","PERIOD":"95.593","CLASSIFICATION_TYPE":"U","RCS_SIZE":"LARGE","DECAY_DATE":null,"OBJECT_TYPE":"PAYLOAD","INCLINATION":"53.0529","SITE":"AFETR","NORAD_CAT_ID":"47647","MEAN_ANOMALY":"47.0189","COUNTRY_CODE":"US","EPHEMERIS_TYPE":"0","OBJECT_NAME":"STARLINK-2030","SEMIMAJOR_AXIS":"6925.375"},{"ECCENTRICITY":"0.00009130","MEAN_MOTION_DOT":"0.00008186","LAUNCH_DATE":"2021-02-16","PERIAPSIS":"546.592","RA_OF_ASC_NODE":"243.8848","TLE_LINE2":"2 47648  53.0528 243.8848 0000913  59.0902 100.7983 15.06396408  3585","MEAN_ELEMENT_THEORY":"SGP4","REV_AT_EPOCH":"358","BSTAR":"0.00056782000000","TIME_SYSTEM":"UTC","REF_FRAME":"TEME","CENTER_NAME":"EARTH","ARG_OF_PERICENTER":"59.0902","MEAN_MOTION_DDOT":"0.0000000000000","GP_ID":"184104692","TLE_LINE1":"1 47648U 21012AE  21248.00004630  .00008186  00000-0  56782-3 0  9999","ELEMENT_SET_NO":"999","OBJECT_ID":"2021-012AE","EPOCH":"2021-09-05T00:00:04.000320","MEAN_MOTION":"15.06396408","FILE":"3108751","MEAN_ANOMALY":"100.7983","SEMIMAJOR_AXIS":"6925.360","OBJECT_NAME":"STARLINK-2031","COUNTRY_CODE":"US","EPHEMERIS_TYPE":"0","NORAD_CAT_ID":"47648","OBJECT_TYPE":"PAYLOAD","SITE":"AFETR","INCLINATION":"53.0528","RCS_SIZE":"MEDIUM","DECAY_DATE":null,"CLASSIFICATION_TYPE":"U","PERIOD":"95.592","APOAPSIS":"547.857"},{"MEAN_MOTION_DDOT":"0.0000000000000","GP_ID":"184105943","TLE_LINE1":"1 47649U 21012AF  21248.00004630  .00009081  00000-0  62770-3 0  9999","ELEMENT_SET_NO":"999","OBJECT_ID":"2021-012AF","EPOCH":"2021-09-05T00:00:04.000320","MEAN_MOTION":"15.06400270","FILE":"3108751","MEAN_MOTION_DOT":"0.00009081","ECCENTRICITY":"0.00005860","LAUNCH_DATE":"2021-02-16","PERIAPSIS":"546.807","TLE_LINE2":"2 47649  53.0537 243.8919 0000586  58.3613  81.6080 15.06400270  3580","RA_OF_ASC_NODE":"243.8919","REV_AT_EPOCH":"358","MEAN_ELEMENT_THEORY":"SGP4","BSTAR":"0.00062770000000","TIME_SYSTEM":"UTC","REF_FRAME":"TEME","CENTER_NAME":"EARTH","ARG_OF_PERICENTER":"58.3613","OBJECT_TYPE":"PAYLOAD","SITE":"AFETR","INCLINATION":"53.0537","DECAY_DATE":null,"RCS_SIZE":"MEDIUM","CLASSIFICATION_TYPE":"U","PERIOD":"95.592","APOAPSIS":"547.619","MEAN_ANOMALY":"81.6080","SEMIMAJOR_AXIS":"6925.348","OBJECT_NAME":"STARLINK-2032","EPHEMERIS_TYPE":"0","COUNTRY_CODE":"US","NORAD_CAT_ID":"47649"},{"EPHEMERIS_TYPE":"0","COUNTRY_CODE":"US","OBJECT_NAME":"STARLINK-2033","SEMIMAJOR_AXIS":"6925.342","MEAN_ANOMALY":"155.0104","NORAD_CAT_ID":"47650","INCLINATION":"53.0541","SITE":"AFETR","OBJECT_TYPE":"PAYLOAD","APOAPSIS":"547.830","PERIOD":"95.592","CLASSIFICATION_TYPE":"U","DECAY_DATE":null,"RCS_SIZE":"LARGE","BSTAR":"0.00061041000000","MEAN_ELEMENT_THEORY":"SGP4","REV_AT_EPOCH":"358","RA_OF_ASC_NODE":"243.8950","TLE_LINE2":"2 47650  53.0541 243.8950 0000900  64.9265 155.0104 15.06402097  3580","LAUNCH_DATE":"2021-02-16","PERIAPSIS":"546.584","ECCENTRICITY":"0.00009000","MEAN_MOTION_DOT":"0.00008823","ARG_OF_PERICENTER":"64.9265","CENTER_NAME":"EARTH","REF_FRAME":"TEME","TIME_SYSTEM":"UTC","ELEMENT_SET_NO":"999","TLE_LINE1":"1 47650U 21012AG  21248.00004630  .00008823  00000-0  61041-3 0  9994","MEAN_MOTION_DDOT":"0.0000000000000","GP_ID":"184105694","FILE":"3108751","MEAN_MOTION":"15.06402097","EPOCH":"2021-09-05T00:00:04.000320","OBJECT_ID":"2021-012AG"},{"MEAN_ANOMALY":"321.2965","OBJECT_NAME":"STARLINK-2035","SEMIMAJOR_AXIS":"6925.373","EPHEMERIS_TYPE":"0","COUNTRY_CODE":"US","NORAD_CAT_ID":"47651","OBJECT_TYPE":"PAYLOAD","INCLINATION":"53.0547","SITE":"AFETR","CLASSIFICATION_TYPE":"U","RCS_SIZE":"LARGE","DECAY_DATE":null,"APOAPSIS":"547.921","PERIOD":"95.593","MEAN_MOTION_DOT":"0.00034724","ECCENTRICITY":"0.00009850","LAUNCH_DATE":"2021-02-16","PERIAPSIS":"546.556","MEAN_ELEMENT_THEORY":"SGP4","REV_AT_EPOCH":"358","RA_OF_ASC_NODE":"263.8935","TLE_LINE2":"2 47651  53.0547 263.8935 0000985  73.8881 321.2965 15.06391880  3587","BSTAR":"0.00233910000000","TIME_SYSTEM":"UTC","REF_FRAME":"TEME","ARG_OF_PERICENTER":"73.8881","CENTER_NAME":"EARTH","MEAN_MOTION_DDOT":"0.0000000000000","GP_ID":"184104942","TLE_LINE1":"1 47651U 21012AH  21248.00004630  .00034724  00000-0  23391-2 0  9999","ELEMENT_SET_NO":"999","EPOCH":"2021-09-05T00:00:04.000320","MEAN_MOTION":"15.06391880","OBJECT_ID":"2021-012AH","FILE":"3108751"}];
